[{"CCSDS_OMM_VERS":"2.0","COMMENT":"GENERATED VIA SPACE-TRACK.ORG API","CREATION_DATE":"2020-02-07T06:40:16","ORIGINATOR":"18 SPCS","OBJECT_NAME":"STARLINK-1024","OBJECT_ID":"2019-074S","CENTER_NAME":"EARTH","REF_FRAME":"TEME","TIME_SYSTEM":"UTC","MEAN_ELEMENT_THEORY":"SGP4","EPOCH":"2020-02-07T06:00:00.999648","MEAN_MOTION":"15.05639491","ECCENTRICITY":"0.00012340","INCLINATION":"53.0079","RA_OF_ASC_NODE":"103.5330","ARG_OF_PERICENTER":"63.8006","MEAN_ANOMALY":"327.7848","EPHEMERIS_TYPE":"0","CLASSIFICATION_TYPE":"U","NORAD_CAT_ID":"44729","ELEMENT_SET_NO":"999","REV_AT_EPOCH":"1369","BSTAR":"0.01197200000000","MEAN_MOTION_DOT":"0.00178927","MEAN_MOTION_DDOT":"0.0000000000000","SEMIMAJOR_AXIS":"6927.680","PERIOD":"95.640","APOAPSIS":"550.400","PERIAPSIS":"548.690","OBJECT_TYPE":"PAYLOAD","RCS_SIZE":"LARGE","COUNTRY_CODE":"US","LAUNCH_DATE":"2019-11-11","SITE":"AFETR","DECAY_DATE":null,"FILE":"2696454","GP_ID":"148218371","TLE_LINE0":"0 STARLINK-1024","TLE_LINE1":"1 44729U 19074S   20038.25001157  .00178927  00000-0  11972-1 0  9996","TLE_LINE2":"2 44729  53.0079 103.5330 0001234  63.8006 327.7848 15.05639491 13691"},{"CCSDS_OMM_VERS":"2.0","COMMENT":"GENERATED VIA SPACE-TRACK.ORG API","CREATION_DATE":"2020-02-07T14:30:17","ORIGINATOR":"18 SPCS","OBJECT_NAME":"STARLINK-1024","OBJECT_ID":"2019-074S","CENTER_NAME":"EARTH","REF_FRAME":"TEME","TIME_SYSTEM":"UTC","MEAN_ELEMENT_THEORY":"SGP4","EPOCH":"2020-02-07T14:00:01.000224","MEAN_MOTION":"15.05442089","ECCENTRICITY":"0.00014190","INCLINATION":"53.0064","RA_OF_ASC_NODE":"102.0384","ARG_OF_PERICENTER":"59.4987","MEAN_ANOMALY":"339.7594","EPHEMERIS_TYPE":"0","CLASSIFICATION_TYPE":"U","NORAD_CAT_ID":"44729","ELEMENT_SET_NO":"999","REV_AT_EPOCH":"1374","BSTAR":"0.03627200000000","MEAN_MOTION_DOT":"0.00557284","MEAN_MOTION_DDOT":"0.0000000000000","SEMIMAJOR_AXIS":"6928.285","PERIOD":"95.652","APOAPSIS":"551.134","PERIAPSIS":"549.167","OBJECT_TYPE":"PAYLOAD","RCS_SIZE":"LARGE","COUNTRY_CODE":"US","LAUNCH_DATE":"2019-11-11","SITE":"AFETR","DECAY_DATE":null,"FILE":"2696617","GP_ID":"148222164","TLE_LINE0":"0 STARLINK-1024","TLE_LINE1":"1 44729U 19074S   20038.58334491  .00557284  00000-0  36272-1 0  9999","TLE_LINE2":"2 44729  53.0064 102.0384 0001419  59.4987 339.7594 15.05442089 13744"},{"CCSDS_OMM_VERS":"2.0","COMMENT":"GENERATED VIA SPACE-TRACK.ORG API","CREATION_DATE":"2020-02-08T01:20:20","ORIGINATOR":"18 SPCS","OBJECT_NAME":"STARLINK-1024","OBJECT_ID":"2019-074S","CENTER_NAME":"EARTH","REF_FRAME":"TEME","TIME_SYSTEM":"UTC","MEAN_ELEMENT_THEORY":"SGP4","EPOCH":"2020-02-07T21:47:42.056160","MEAN_MOTION":"15.06378254","ECCENTRICITY":"0.00011060","INCLINATION":"53.0099","RA_OF_ASC_NODE":"100.5800","ARG_OF_PERICENTER":"122.4076","MEAN_ANOMALY":"237.7020","EPHEMERIS_TYPE":"0","CLASSIFICATION_TYPE":"U","NORAD_CAT_ID":"44729","ELEMENT_SET_NO":"999","REV_AT_EPOCH":"1362","BSTAR":"-0.01064700000000","MEAN_MOTION_DOT":"-0.00155357","MEAN_MOTION_DDOT":"0.0000000000000","SEMIMAJOR_AXIS":"6925.415","PERIOD":"95.593","APOAPSIS":"548.046","PERIAPSIS":"546.514","OBJECT_TYPE":"PAYLOAD","RCS_SIZE":"LARGE","COUNTRY_CODE":"US","LAUNCH_DATE":"2019-11-11","SITE":"AFETR","DECAY_DATE":null,"FILE":"2696928","GP_ID":"148268575","TLE_LINE0":"0 STARLINK-1024","TLE_LINE1":"1 44729U 19074S   20038.90812565 -.00155357 +00000-0 -10647-1 0  9993","TLE_LINE2":"2 44729 053.0099 100.5800 0001106 122.4076 237.7020 15.06378254013622"},{"CCSDS_OMM_VERS":"2.0","COMMENT":"GENERATED VIA SPACE-TRACK.ORG API","CREATION_DATE":"2020-02-07T22:40:17","ORIGINATOR":"18 SPCS","OBJECT_NAME":"STARLINK-1024","OBJECT_ID":"2019-074S","CENTER_NAME":"EARTH","REF_FRAME":"TEME","TIME_SYSTEM":"UTC","MEAN_ELEMENT_THEORY":"SGP4","EPOCH":"2020-02-07T22:00:00.999936","MEAN_MOTION":"15.05582139","ECCENTRICITY":"0.00012910","INCLINATION":"53.0066","RA_OF_ASC_NODE":"100.5407","ARG_OF_PERICENTER":"62.8272","MEAN_ANOMALY":"344.1211","EPHEMERIS_TYPE":"0","CLASSIFICATION_TYPE":"U","NORAD_CAT_ID":"44729","ELEMENT_SET_NO":"999","REV_AT_EPOCH":"1379","BSTAR":"0.00301680000000","MEAN_MOTION_DOT":"0.00043952","MEAN_MOTION_DDOT":"0.0000000000000","SEMIMAJOR_AXIS":"6927.856","PERIOD":"95.644","APOAPSIS":"550.615","PERIAPSIS":"548.826","OBJECT_TYPE":"PAYLOAD","RCS_SIZE":"LARGE","COUNTRY_CODE":"US","LAUNCH_DATE":"2019-11-11","SITE":"AFETR","DECAY_DATE":null,"FILE":"2696821","GP_ID":"148246392","TLE_LINE0":"0 STARLINK-1024","TLE_LINE1":"1 44729U 19074S   20038.91667824  .00043952  00000-0  30168-2 0  9996","TLE_LINE2":"2 44729  53.0066 100.5407 0001291  62.8272 344.1211 15.05582139 13790"},{"CCSDS_OMM_VERS":"2.0","COMMENT":"GENERATED VIA SPACE-TRACK.ORG API","CREATION_DATE":"2020-02-08T14:50:15","ORIGINATOR":"18 SPCS","OBJECT_NAME":"STARLINK-1024","OBJECT_ID":"2019-074S","CENTER_NAME":"EARTH","REF_FRAME":"TEME","TIME_SYSTEM":"UTC","MEAN_ELEMENT_THEORY":"SGP4","EPOCH":"2020-02-08T10:00:00.999936","MEAN_MOTION":"15.05600204","ECCENTRICITY":"0.00013960","INCLINATION":"53.0011","RA_OF_ASC_NODE":"98.2974","ARG_OF_PERICENTER":"58.8194","MEAN_ANOMALY":"179.7013","EPHEMERIS_TYPE":"0","CLASSIFICATION_TYPE":"U","NORAD_CAT_ID":"44729","ELEMENT_SET_NO":"999","REV_AT_EPOCH":"1387","BSTAR":"-0.00077914000000","MEAN_MOTION_DOT":"-0.00011619","MEAN_MOTION_DDOT":"0.0000000000000","SEMIMAJOR_AXIS":"6927.800","PERIOD":"95.642","APOAPSIS":"550.633","PERIAPSIS":"548.698","OBJECT_TYPE":"PAYLOAD","RCS_SIZE":"LARGE","COUNTRY_CODE":"US","LAUNCH_DATE":"2019-11-11","SITE":"AFETR","DECAY_DATE":null,"FILE":"2697167","GP_ID":"148293737","TLE_LINE0":"0 STARLINK-1024","TLE_LINE1":"1 44729U 19074S   20039.41667824 -.00011619  00000-0 -77914-3 0  9990","TLE_LINE2":"2 44729  53.0011  98.2974 0001396  58.8194 179.7013 15.05600204 13871"},{"CCSDS_OMM_VERS":"2.0","COMMENT":"GENERATED VIA SPACE-TRACK.ORG API","CREATION_DATE":"2020-02-09T01:25:52","ORIGINATOR":"18 SPCS","OBJECT_NAME":"STARLINK-1024","OBJECT_ID":"2019-074S","CENTER_NAME":"EARTH","REF_FRAME":"TEME","TIME_SYSTEM":"UTC","MEAN_ELEMENT_THEORY":"SGP4","EPOCH":"2020-02-08T22:00:00.999936","MEAN_MOTION":"15.05586012","ECCENTRICITY":"0.00012860","INCLINATION":"53.0012","RA_OF_ASC_NODE":"96.0517","ARG_OF_PERICENTER":"61.7558","MEAN_ANOMALY":"8.3434","EPHEMERIS_TYPE":"0","CLASSIFICATION_TYPE":"U","NORAD_CAT_ID":"44729","ELEMENT_SET_NO":"999","REV_AT_EPOCH":"176","BSTAR":"0.00258610000000","MEAN_MOTION_DOT":"0.00037608","MEAN_MOTION_DDOT":"0.0000000000000","SEMIMAJOR_AXIS":"6927.844","PERIOD":"95.643","APOAPSIS":"550.600","PERIAPSIS":"548.818","OBJECT_TYPE":"PAYLOAD","RCS_SIZE":"LARGE","COUNTRY_CODE":"US","LAUNCH_DATE":"2019-11-11","SITE":"AFETR","DECAY_DATE":null,"FILE":"2697385","GP_ID":"148356977","TLE_LINE0":"0 STARLINK-1024","TLE_LINE1":"1 44729U 19074S   20039.91667824 +.00037608 +00000-0 +25861-2 0  9992","TLE_LINE2":"2 44729 053.0012 096.0517 0001286 061.7558 008.3434 15.05586012001765"},{"CCSDS_OMM_VERS":"2.0","COMMENT":"GENERATED VIA SPACE-TRACK.ORG API","CREATION_DATE":"2020-02-09T17:08:44","ORIGINATOR":"18 SPCS","OBJECT_NAME":"STARLINK-1024","OBJECT_ID":"2019-074S","CENTER_NAME":"EARTH","REF_FRAME":"TEME","TIME_SYSTEM":"UTC","MEAN_ELEMENT_THEORY":"SGP4","EPOCH":"2020-02-09T06:00:00.999648","MEAN_MOTION":"15.05609028","ECCENTRICITY":"0.00013160","INCLINATION":"52.9984","RA_OF_ASC_NODE":"94.5555","ARG_OF_PERICENTER":"63.3646","MEAN_ANOMALY":"14.4427","EPHEMERIS_TYPE":"0","CLASSIFICATION_TYPE":"U","NORAD_CAT_ID":"44729","ELEMENT_SET_NO":"999","REV_AT_EPOCH":"176","BSTAR":"-0.00054865000000","MEAN_MOTION_DOT":"-0.00008270","MEAN_MOTION_DDOT":"0.0000000000000","SEMIMAJOR_AXIS":"6927.773","PERIOD":"95.642","APOAPSIS":"550.550","PERIAPSIS":"548.727","OBJECT_TYPE":"PAYLOAD","RCS_SIZE":"LARGE","COUNTRY_CODE":"US","LAUNCH_DATE":"2019-11-11","SITE":"AFETR","DECAY_DATE":null,"FILE":"2697702","GP_ID":"148383770","TLE_LINE0":"0 STARLINK-1024","TLE_LINE1":"1 44729U 19074S   20040.25001157 -.00008270 +00000-0 -54865-3 0  9994","TLE_LINE2":"2 44729 052.9984 094.5555 0001316 063.3646 014.4427 15.05609028001769"},{"CCSDS_OMM_VERS":"2.0","COMMENT":"GENERATED VIA SPACE-TRACK.ORG API","CREATION_DATE":"2020-02-09T14:40:17","ORIGINATOR":"18 SPCS","OBJECT_NAME":"STARLINK-1024","OBJECT_ID":"2019-074S","CENTER_NAME":"EARTH","REF_FRAME":"TEME","TIME_SYSTEM":"UTC","MEAN_ELEMENT_THEORY":"SGP4","EPOCH":"2020-02-09T14:00:01.000224","MEAN_MOTION":"15.05559019","ECCENTRICITY":"0.00014210","INCLINATION":"52.9982","RA_OF_ASC_NODE":"93.0603","ARG_OF_PERICENTER":"54.7164","MEAN_ANOMALY":"30.8276","EPHEMERIS_TYPE":"0","CLASSIFICATION_TYPE":"U","NORAD_CAT_ID":"44729","ELEMENT_SET_NO":"999","REV_AT_EPOCH":"1404","BSTAR":"0.00859440000000","MEAN_MOTION_DOT":"0.00127148","MEAN_MOTION_DDOT":"0.0000000000000","SEMIMAJOR_AXIS":"6927.927","PERIOD":"95.645","APOAPSIS":"550.776","PERIAPSIS":"548.807","OBJECT_TYPE":"PAYLOAD","RCS_SIZE":"LARGE","COUNTRY_CODE":"US","LAUNCH_DATE":"2019-11-11","SITE":"AFETR","DECAY_DATE":null,"FILE":"2697622","GP_ID":"148362259","TLE_LINE0":"0 STARLINK-1024","TLE_LINE1":"1 44729U 19074S   20040.58334491  .00127148  00000-0  85944-2 0  9995","TLE_LINE2":"2 44729  52.9982  93.0603 0001421  54.7164  30.8276 15.05559019 14044"}]